[{"OBJECT_NAME":"CUTE-1 (CO-55)","OBJECT_ID":"2003-031E","EPOCH":"2026-03-28T14:26:38.308128","MEAN_MOTION":14.24281335,"ECCENTRICITY":0.00106301,"INCLINATION":98.6773,"RA_OF_ASC_NODE":97.1664,"ARG_OF_PERICENTER":63.2867,"MEAN_ANOMALY":296.9399,"EPHEMERIS_TYPE":0,"CLASSIFICATION_TYPE":"U","NORAD_CAT_ID":27844,"ELEMENT_SET_NO":999,"REV_AT_EPOCH":18020,"BSTAR":0.00017670909,"MEAN_MOTION_DOT":3.64e-6,"MEAN_MOTION_DDOT":0},{"OBJECT_NAME":"CUBESAT XI-IV (CO-57)","OBJECT_ID":"2003-031J","EPOCH":"2026-03-28T13:12:05.572800","MEAN_MOTION":14.23574119,"ECCENTRICITY":0.00106143,"INCLINATION":98.6807,"RA_OF_ASC_NODE":96.8929,"ARG_OF_PERICENTER":79.7322,"MEAN_ANOMALY":280.5053,"EPHEMERIS_TYPE":0,"CLASSIFICATION_TYPE":"U","NORAD_CAT_ID":27848,"ELEMENT_SET_NO":999,"REV_AT_EPOCH":17990,"BSTAR":0.00015151518,"MEAN_MOTION_DOT":3.01e-6,"MEAN_MOTION_DDOT":0},{"OBJECT_NAME":"CUBESAT XI-V","OBJECT_ID":"2005-043F","EPOCH":"2026-03-28T09:42:35.764704","MEAN_MOTION":14.7239442,"ECCENTRICITY":0.00153582,"INCLINATION":98.2868,"RA_OF_ASC_NODE":241.3872,"ARG_OF_PERICENTER":101.965,"MEAN_ANOMALY":258.3279,"EPHEMERIS_TYPE":0,"CLASSIFICATION_TYPE":"U","NORAD_CAT_ID":28895,"ELEMENT_SET_NO":999,"REV_AT_EPOCH":8986,"BSTAR":0.0003243232,"MEAN_MOTION_DOT":2.005e-5,"MEAN_MOTION_DDOT":0},{"OBJECT_NAME":"CUTE-1.7+APD II (CO-65)","OBJECT_ID":"2008-021C","EPOCH":"2026-03-28T13:14:47.533056","MEAN_MOTION":15.08625155,"ECCENTRICITY":0.00076741,"INCLINATION":97.8225,"RA_OF_ASC_NODE":67.3684,"ARG_OF_PERICENTER":311.5139,"MEAN_ANOMALY":48.5429,"EPHEMERIS_TYPE":0,"CLASSIFICATION_TYPE":"U","NORAD_CAT_ID":32785,"ELEMENT_SET_NO":999,"REV_AT_EPOCH":97303,"BSTAR":0.00051406529,"MEAN_MOTION_DOT":7.986e-5,"MEAN_MOTION_DDOT":0},{"OBJECT_NAME":"CANX-2","OBJECT_ID":"2008-021H","EPOCH":"2026-03-28T20:33:25.551072","MEAN_MOTION":15.04996687,"ECCENTRICITY":0.0009161,"INCLINATION":97.8589,"RA_OF_ASC_NODE":66.1388,"ARG_OF_PERICENTER":325.806,"MEAN_ANOMALY":34.2574,"EPHEMERIS_TYPE":0,"CLASSIFICATION_TYPE":"U","NORAD_CAT_ID":32790,"ELEMENT_SET_NO":999,"REV_AT_EPOCH":97272,"BSTAR":0.00037703,"MEAN_MOTION_DOT":5.29e-5,"MEAN_MOTION_DDOT":0},{"OBJECT_NAME":"SEEDS II (CO-66)","OBJECT_ID":"2008-021J","EPOCH":"2026-03-28T12:01:52.460832","MEAN_MOTION":15.2986394,"ECCENTRICITY":0.0001837,"INCLINATION":97.7522,"RA_OF_ASC_NODE":81.7278,"ARG_OF_PERICENTER":175.4551,"MEAN_ANOMALY":184.6705,"EPHEMERIS_TYPE":0,"CLASSIFICATION_TYPE":"U","NORAD_CAT_ID":32791,"ELEMENT_SET_NO":999,"REV_AT_EPOCH":97494,"BSTAR":0.00078688,"MEAN_MOTION_DOT":0.0002272,"MEAN_MOTION_DDOT":0},{"OBJECT_NAME":"SWISSCUBE","OBJECT_ID":"2009-051B","EPOCH":"2026-03-28T12:00:09.453024","MEAN_MOTION":14.62308998,"ECCENTRICITY":0.0008011,"INCLINATION":98.4083,"RA_OF_ASC_NODE":353.9755,"ARG_OF_PERICENTER":100.7792,"MEAN_ANOMALY":259.4311,"EPHEMERIS_TYPE":0,"CLASSIFICATION_TYPE":"U","NORAD_CAT_ID":35932,"ELEMENT_SET_NO":999,"REV_AT_EPOCH":87736,"BSTAR":0.00025339,"MEAN_MOTION_DOT":1.23e-5,"MEAN_MOTION_DDOT":0},{"OBJECT_NAME":"BEESAT-1","OBJECT_ID":"2009-051C","EPOCH":"2026-03-28T06:18:31.224096","MEAN_MOTION":14.61574631,"ECCENTRICITY":0.0006339,"INCLINATION":98.4013,"RA_OF_ASC_NODE":353.5367,"ARG_OF_PERICENTER":112.3505,"MEAN_ANOMALY":247.8368,"EPHEMERIS_TYPE":0,"CLASSIFICATION_TYPE":"U","NORAD_CAT_ID":35933,"ELEMENT_SET_NO":999,"REV_AT_EPOCH":87736,"BSTAR":0.00022305,"MEAN_MOTION_DOT":1.059e-5,"MEAN_MOTION_DDOT":0},{"OBJECT_NAME":"ITUPSAT1","OBJECT_ID":"2009-051E","EPOCH":"2026-03-28T10:58:28.604928","MEAN_MOTION":14.60306403,"ECCENTRICITY":0.00084137,"INCLINATION":98.41,"RA_OF_ASC_NODE":353.01,"ARG_OF_PERICENTER":123.1733,"MEAN_ANOMALY":237.0275,"EPHEMERIS_TYPE":0,"CLASSIFICATION_TYPE":"U","NORAD_CAT_ID":35935,"ELEMENT_SET_NO":999,"REV_AT_EPOCH":87695,"BSTAR":0.00020866164,"MEAN_MOTION_DOT":9.6e-6,"MEAN_MOTION_DDOT":0},{"OBJECT_NAME":"TISAT 1","OBJECT_ID":"2010-035E","EPOCH":"2026-03-28T08:30:28.533024","MEAN_MOTION":15.28476313,"ECCENTRICITY":0.00035945,"INCLINATION":98.0654,"RA_OF_ASC_NODE":26.9675,"ARG_OF_PERICENTER":129.6245,"MEAN_ANOMALY":230.5311,"EPHEMERIS_TYPE":0,"CLASSIFICATION_TYPE":"U","NORAD_CAT_ID":36799,"ELEMENT_SET_NO":999,"REV_AT_EPOCH":85534,"BSTAR":0.00091870471,"MEAN_MOTION_DOT":0.00025444,"MEAN_MOTION_DDOT":0},{"OBJECT_NAME":"AEROCUBE 4.5A","OBJECT_ID":"2012-048K","EPOCH":"2026-03-27T22:46:52.087872","MEAN_MOTION":15.65610512,"ECCENTRICITY":0.00371444,"INCLINATION":64.6364,"RA_OF_ASC_NODE":316.3253,"ARG_OF_PERICENTER":208.5878,"MEAN_ANOMALY":151.3235,"EPHEMERIS_TYPE":0,"CLASSIFICATION_TYPE":"U","NORAD_CAT_ID":38767,"ELEMENT_SET_NO":999,"REV_AT_EPOCH":35984,"BSTAR":0.00092726229,"MEAN_MOTION_DOT":0.00098257,"MEAN_MOTION_DDOT":0},{"OBJECT_NAME":"STRAND-1","OBJECT_ID":"2013-009E","EPOCH":"2026-03-28T12:03:17.919072","MEAN_MOTION":14.37110348,"ECCENTRICITY":0.0009785,"INCLINATION":98.3903,"RA_OF_ASC_NODE":269.7275,"ARG_OF_PERICENTER":110.2175,"MEAN_ANOMALY":250.0065,"EPHEMERIS_TYPE":0,"CLASSIFICATION_TYPE":"U","NORAD_CAT_ID":39090,"ELEMENT_SET_NO":999,"REV_AT_EPOCH":68547,"BSTAR":0.00013934,"MEAN_MOTION_DOT":3.71e-6,"MEAN_MOTION_DDOT":0},{"OBJECT_NAME":"BRITE-AUSTRIA","OBJECT_ID":"2013-009F","EPOCH":"2026-03-28T11:32:18.548736","MEAN_MOTION":14.3650658,"ECCENTRICITY":0.00112668,"INCLINATION":98.3972,"RA_OF_ASC_NODE":268.9194,"ARG_OF_PERICENTER":118.4557,"MEAN_ANOMALY":241.7766,"EPHEMERIS_TYPE":0,"CLASSIFICATION_TYPE":"U","NORAD_CAT_ID":39091,"ELEMENT_SET_NO":999,"REV_AT_EPOCH":68546,"BSTAR":9.4790629e-5,"MEAN_MOTION_DOT":2.36e-6,"MEAN_MOTION_DDOT":0},{"OBJECT_NAME":"NEE-01 PEGASO","OBJECT_ID":"2013-018B","EPOCH":"2026-03-28T07:54:56.086848","MEAN_MOTION":14.9322512,"ECCENTRICITY":0.00137492,"INCLINATION":98.1084,"RA_OF_ASC_NODE":228.8894,"ARG_OF_PERICENTER":73.4438,"MEAN_ANOMALY":286.8289,"EPHEMERIS_TYPE":0,"CLASSIFICATION_TYPE":"U","NORAD_CAT_ID":39151,"ELEMENT_SET_NO":999,"REV_AT_EPOCH":69863,"BSTAR":0.00038166262,"MEAN_MOTION_DOT":3.936e-5,"MEAN_MOTION_DDOT":0},{"OBJECT_NAME":"POPACS 2","OBJECT_ID":"2013-055E","EPOCH":"2026-03-28T03:10:46.644384","MEAN_MOTION":14.88829205,"ECCENTRICITY":0.04273059,"INCLINATION":80.9907,"RA_OF_ASC_NODE":236.8155,"ARG_OF_PERICENTER":93.9457,"MEAN_ANOMALY":271.0705,"EPHEMERIS_TYPE":0,"CLASSIFICATION_TYPE":"U","NORAD_CAT_ID":39269,"ELEMENT_SET_NO":999,"REV_AT_EPOCH":65114,"BSTAR":0.00040497051,"MEAN_MOTION_DOT":0.00023666,"MEAN_MOTION_DDOT":0},{"OBJECT_NAME":"POPACS 3","OBJECT_ID":"2013-055F","EPOCH":"2026-03-28T14:24:31.616352","MEAN_MOTION":14.5444109,"ECCENTRICITY":0.05573086,"INCLINATION":81.0031,"RA_OF_ASC_NODE":316.4709,"ARG_OF_PERICENTER":315.2398,"MEAN_ANOMALY":40.5069,"EPHEMERIS_TYPE":0,"CLASSIFICATION_TYPE":"U","NORAD_CAT_ID":39270,"ELEMENT_SET_NO":999,"REV_AT_EPOCH":62683,"BSTAR":0.00024398668,"MEAN_MOTION_DOT":0.00010053,"MEAN_MOTION_DDOT":0}]
