CUTE-1 (CO-55)          
1 27844U 03031E   26087.60183227  .00000364  00000+0  17671-3 0  9991
2 27844  98.6773  97.1664 0010630  63.2867 296.9399 14.24281335180203
CUBESAT XI-IV (CO-57)   
1 27848U 03031J   26087.55006450  .00000301  00000+0  15152-3 0  9994
2 27848  98.6807  96.8929 0010614  79.7322 280.5053 14.23574119179900
CUBESAT XI-V            
1 28895U 05043F   26087.40458061  .00002005  00000+0  32432-3 0  9998
2 28895  98.2868 241.3872 0015358 101.9650 258.3279 14.72394420 89869
CUTE-1.7+APD II (CO-65) 
1 32785U 08021C   26087.55193904  .00007986  00000+0  51407-3 0  9994
2 32785  97.8225  67.3684 0007674 311.5139  48.5429 15.08625155973033
CANX-2                  
1 32790U 08021H   26087.85654573  .00005290  00000+0  37703-3 0  9996
2 32790  97.8589  66.1388 0009161 325.8060  34.2574 15.04996687972729
SEEDS II (CO-66)        
1 32791U 08021J   26087.50130163  .00022720  00000+0  78688-3 0  9997
2 32791  97.7522  81.7278 0001837 175.4551 184.6705 15.29863940974947
SWISSCUBE               
1 35932U 09051B   26087.50010941  .00001230  00000+0  25339-3 0  9990
2 35932  98.4083 353.9755 0008011 100.7792 259.4311 14.62308998877365
BEESAT-1                
1 35933U 09051C   26087.26286139  .00001059  00000+0  22305-3 0  9997
2 35933  98.4013 353.5367 0006339 112.3505 247.8368 14.61574631877367
ITUPSAT1                
1 35935U 09051E   26087.45727552  .00000960  00000+0  20866-3 0  9999
2 35935  98.4100 353.0100 0008413 123.1733 237.0275 14.60306403876955
TISAT 1                 
1 36799U 10035E   26087.35449691  .00025444  00000+0  91870-3 0  9993
2 36799  98.0654  26.9675 0003594 129.6245 230.5311 15.28476313855343
AEROCUBE 4.5A           
1 38767U 12048K   26086.94921398  .00098257  00000+0  92726-3 0  9992
2 38767  64.6364 316.3253 0037144 208.5878 151.3235 15.65610512359843
STRAND-1                
1 39090U 13009E   26087.50229073  .00000371  00000+0  13934-3 0  9998
2 39090  98.3903 269.7275 0009785 110.2175 250.0065 14.37110348685479
BRITE-AUSTRIA           
1 39091U 13009F   26087.48077024  .00000236  00000+0  94791-4 0  9994
2 39091  98.3972 268.9194 0011266 118.4557 241.7766 14.36506580685468
NEE-01 PEGASO           
1 39151U 13018B   26087.32981582  .00003936  00000+0  38166-3 0  9990
2 39151  98.1084 228.8894 0013749  73.4438 286.8289 14.93225120698639
POPACS 2                
1 39269U 13055E   26087.13248431  .00023666  00000+0  40497-3 0  9991
2 39269  80.9907 236.8155 0427305  93.9457 271.0705 14.88829205651148
POPACS 3                
1 39270U 13055F   26087.60036593  .00010053  00000+0  24399-3 0  9998
2 39270  81.0031 316.4709 0557308 315.2398  40.5069 14.54441090626836
